[{"OBJECT_NAME":"HORS 2","OBJECT_ID":"2023-091AG","EPOCH":"2026-03-09T22:11:34.810944","MEAN_MOTION":15.2928008,"ECCENTRICITY":0.00098173,"INCLINATION":97.5195,"RA_OF_ASC_NODE":134.7443,"ARG_OF_PERICENTER":79.3164,"MEAN_ANOMALY":280.9181,"EPHEMERIS_TYPE":0,"CLASSIFICATION_TYPE":"U","NORAD_CAT_ID":57196,"ELEMENT_SET_NO":999,"REV_AT_EPOCH":14934,"BSTAR":0.00059338338,"MEAN_MOTION_DOT":0.00016821,"MEAN_MOTION_DDOT":0},{"OBJECT_NAME":"STARLINK-32179","OBJECT_ID":"2024-152Q","EPOCH":"2026-03-09T22:32:43.632960","MEAN_MOTION":15.30227804,"ECCENTRICITY":0.00010101,"INCLINATION":53.1595,"RA_OF_ASC_NODE":267.6589,"ARG_OF_PERICENTER":90.3902,"MEAN_ANOMALY":269.7214,"EPHEMERIS_TYPE":0,"CLASSIFICATION_TYPE":"U","NORAD_CAT_ID":60734,"ELEMENT_SET_NO":999,"REV_AT_EPOCH":8675,"BSTAR":0.00010607329,"MEAN_MOTION_DOT":2.786e-5,"MEAN_MOTION_DDOT":0}]
